UNKNOWN                 
1 87517U 76126    23291.11572375  .00010031  00000+0  29964-2 0  9994
2 87517  65.8294 333.3435 0716985 323.2193  59.3266 13.50375972486244
UNKNOWN                 
1 87541U 70025    23290.15338505  .00000436  00000+0  93638-3 0  9999
2 87541  99.8008 169.0047 0060905   5.0318 147.3798 13.35154550476913
UNKNOWN                 
1 87553U 76126    23288.17216391  .00007961  00000+0  25199-2 0  9993
2 87553  65.6706  94.6222 0733031 218.5378 136.1118 13.45336196484699
UNKNOWN                 
1 87557U 73086    23290.54696805  .00005632  00000+0  14438-1 0  9991
2 87557 101.8595  38.0125 0056504 294.4639  65.0583 13.17949040460936
UNKNOWN                 
1 87561U 76077    23290.13811569  .00000034  00000+0  61966-3 0  9991
2 87561 102.1110 355.3558 0174905 293.1169  93.2020 12.32127619445436
UNKNOWN                 
1 87565U 99025    23289.71076123  .00001225  00000+0  72620-3 0  9996
2 87565  99.8796 199.2331 0181187 139.5110 221.9697 14.01832321505859
UNKNOWN                 
1 87569U 99025    23287.25240837 -.00000034  00000+0  69356-4 0  9993
2 87569 101.9004  65.8583 0055664   7.2885 110.3123 12.68498530458232
UNKNOWN                 
1 87587U 93036    23289.23743729  .00000420  00000+0  14359-3 0  9997
2 87587  74.0213 120.0519 0020891 345.1586  14.8953 14.39237393520331
UNKNOWN                 
1 87590U 99025    23281.07169368  .00001100  00000+0  66498-3 0  9997
2 87590  98.8843 322.2458 0027372  13.2703  17.5267 14.08461820 42024
UNKNOWN                 
1 87616U 76067    23289.38256020  .00000861  00000+0  31384-2 0  9999
2 87616  66.0354 257.2722 0630258 115.0546  38.6198 12.45538746437999
UNKNOWN                 
1 87624U 99025    23290.41451981  .00003882  00000+0  79602-3 0  9998
2 87624  98.6958 176.3511 0122109 162.8658 197.6718 14.56702852465159
UNKNOWN                 
1 87650U          23289.23647685  .00010300  00000+0  33111-2 0  9995
2 87650 100.2850 283.9374 0047248  23.3721 336.9594 14.38946605 73738
UNKNOWN                 
1 87664U 75052    23289.80746851  .00000384  00000+0  11453-2 0  9993
2 87664  99.7639 233.6284 0213879 332.3388  55.8800 13.06647525438453
UNKNOWN                 
1 87672U 93016    23290.33418184  .00004720  00000+0  21455-2 0  9998
2 87672  70.8604 258.8291 0061486  27.7810 332.6576 14.21253313512311
UNKNOWN                 
1 87681U          23289.04801024  .00001426  00000+0  15993-2 0  9994
2 87681  66.7380 162.8253 0160662 321.5998  37.3718 13.68425910493810
UNKNOWN                 
1 87690U 76126    23290.16211779  .00007832  00000+0  13449-2 0  9994
2 87690  65.7997 217.8297 0637232  84.4187 282.9162 13.85146221497683
UNKNOWN                 
1 87706U          23289.88658758  .00009429  00000+0  20830-2 0  9995
2 87706  98.6129  70.1078 0126917 168.9369 342.7394 14.52584982463661
UNKNOWN                 
1 87725U 81053    23290.77385110  .00017779  00000+0  49069-2 0  9994
2 87725  82.8944 219.2094 0031089  82.9259 277.5470 14.46407700518581
UNKNOWN                 
1 87730U          23288.73081500  .00000157  00000+0  14948-3 0  9993
2 87730  82.9408  97.8270 0030813  44.5634 315.7991 13.74291472476958
UNKNOWN                 
1 87737U 99025    23290.47105375  .00000096  00000+0  14346-3 0  9990
2 87737  99.4873 163.8079 0134278  77.9858 283.6304 13.72122334495885
UNKNOWN                 
1 87764U 76126    23290.99581358  .00012157  00000+0  25089-2 0  9999
2 87764  65.6756 132.4074 0439973 112.9710  34.5231 14.13995189507084
UNKNOWN                 
1 87771U 75052    23290.42114336  .00000146  00000+0  46865-3 0  9991
2 87771 100.7353  98.3456 0119756 346.3051  13.4824 13.19204768431266
UNKNOWN                 
1 87782U 73086    23291.08113099  .00003689  00000+0  13467-1 0  9991
2 87782 102.3949  53.0371 0037890  15.8995 344.3278 12.94104567465976
UNKNOWN                 
1 87843U 70025    23290.92258604  .00002358  00000+0  57665-2 0  9994
2 87843  99.6808 101.8033 0241708  42.5041 319.4511 13.12262335460794
UNKNOWN                 
1 87845U          23290.54104123  .00002743  00000+0  53850-2 0  9996
2 87845  98.8771  33.4473 0582021 261.8990  91.5725 12.85868377463918
UNKNOWN                 
1 87878U          23283.62960831  .00005152  00000+0  19266-2 0  9999
2 87878  99.1789 343.0561 0040988  65.2687 295.2752 14.31801015497318
UNKNOWN                 
1 87883U 99025    23290.49847579  .00002426  00000+0  86646-3 0  9994
2 87883  99.1905 206.6939 0294623  68.3019 294.9246 14.13594475461052
UNKNOWN                 
1 87884U 99025    23289.15052123  .00000895  00000+0  52104-3 0  9999
2 87884  98.6710  52.7315 0156947 127.1629 234.3990 14.04919010507596
UNKNOWN                 
1 87898U 99025    23289.64781683  .00014782  00000+0  44047-2 0  9994
2 87898  98.8947 177.0521 0120972  40.7946 320.2220 14.38981271515074
UNKNOWN                 
1 87934U          23290.91461473  .00000130  00000+0  12359-3 0  9998
2 87934  82.9379 161.1211 0031990  64.0183 309.7245 13.72906650496343
UNKNOWN                 
1 87942U          23290.97069536  .00028889  00000+0  20146-2 0  9990
2 87942  99.0701 341.7524 0106778 115.1582   7.4686 15.00777627528891
UNKNOWN                 
1 87991U 77065    23288.40694750  .00001010  00000+0  19561-2 0  9992
2 87991  28.6229 326.5814 0911473  66.5645 302.8022 12.31130402425499
UNKNOWN                 
1 87998U 99025    23290.83514592  .00001240  00000+0  73597-3 0  9999
2 87998  98.6431 318.3374 0026476 324.6639  35.2777 14.09133039437975
UNKNOWN                 
1 89003U          23284.55053831  .00000861  00000+0  31011-3 0  9992
2 89003  74.0479  29.0243 0016949 282.6157  77.3100 14.35158269517716
UNKNOWN                 
1 89005U          23290.60731779  .00004457  00000+0  11480-2 0  9993
2 89005  97.9177 168.8034 0211146 278.6134  79.1185 14.38053688420665
UNKNOWN                 
1 89029U          23289.35816171  .00005057  00000+0  62962-3 0  9998
2 89029  98.1392 161.2534 0029540  25.6526 334.6145 14.82649393533815
UNKNOWN                 
1 89037U          23278.53042294  .00009700  00000+0  52770-2 0  9996
2 89037  98.4527 211.5133 0131979 276.9674  81.6501 14.08067754409771
UNKNOWN                 
1 89067U          23290.85748292  .00050596  00000+0  12627-2 0  9995
2 89067  80.9776  84.5072 0463095 211.2380 146.0546 14.73176382468353
UNKNOWN                 
1 89074U          23279.45176913  .00005336  00000+0  58397-2 0  9997
2 89074 100.3270 349.9380 0051680 250.1255 123.6318 13.72335944479688
UNKNOWN                 
1 89101U          23288.69616314  .00000166  00000+0  62223-3 0  9998
2 89101 100.3694 242.8101 0148265  68.6871 292.9990 13.03758161452011
UNKNOWN                 
1 89123U          23287.76990735  .00014553  00000+0  59016-2 0  9991
2 89123  99.0711  48.0825 0056484 347.0445  12.9280 14.26887882414963
UNKNOWN                 
1 89132U          23288.87966072  .00010586  00000+0  10373-1 0  9995
2 89132  63.4602 241.4331 3021126 320.3185  21.0988  8.78489756255463
UNKNOWN                 
1 89142U          23290.99196656  .00524960  00000+0  27476+0 0  9991
2 89142  64.8822 185.9725 1961883  19.2102 347.3305 10.90628221 46684
UNKNOWN                 
1 89146U          23290.58411626  .00007990  00000+0  18346-2 0  9995
2 89146  98.2106 217.0528 0112002 339.6171  20.0572 14.51930188514216
UNKNOWN                 
1 89161U          23290.81571712  .00009894  00000+0  11380-2 0  9997
2 89161  97.7041 301.8896 0112713 204.6957 154.8836 14.81428384430418
UNKNOWN                 
1 89172U 81053    23288.53517490  .00007586  00000+0  16852-2 0  9990
2 89172  82.0767 226.3779 0385142 138.7398 224.3583 14.19757795488874
UNKNOWN                 
1 89177U          23288.86676793  .00000148  00000+0  14169-3 0  9993
2 89177  82.9187 133.9381 0032439 175.1080 185.0399 13.73516192954663
UNKNOWN                 
1 89183U          23291.00263464  .00000971  00000+0  91263-3 0  9991
2 89183  99.2153 209.8754 0133496  87.2776 274.3648 13.79995350498396
UNKNOWN                 
1 89184U          23290.50271357  .00009925  00000+0  27119-2 0  9992
2 89184  98.4488 129.1745 0019446  51.7613 308.5326 14.47343172377133
UNKNOWN                 
1 89195U          23285.15150613  .00007202  00000+0  28698-2 0  9999
2 89195  98.7432 357.6350 0029529  24.1565 336.0994 14.28623236414365
UNKNOWN                 
1 89206U          23290.85733644  .00008631  00000+0  31712-2 0  9994
2 89206  98.6794 319.5876 0025431 305.4043  54.4765 14.32743997373512
UNKNOWN                 
1 89213U          23290.18273523  .00000761  00000+0  52332-3 0  9991
2 89213  98.8593 190.7087 0232243 122.4259 239.9595 13.89930552343197
UNKNOWN                 
1 89218U          23287.09531348  .00000122  00000+0  15680-3 0  9990
2 89218 100.3609 153.5402 0103399 259.6167  99.3315 13.81888489484284
UNKNOWN                 
1 89251U          23290.97780319  .00019219  00000+0  13735-1 0  9996
2 89251  62.5055 278.9048 3012210  30.0001 344.3576  8.87474532301803
UNKNOWN                 
1 89255U          23286.84488377  .00002505  00000+0  32347-2 0  9991
2 89255  98.6384 150.8908 0361748 307.1139  49.7441 13.39154182389234
UNKNOWN                 
1 89261U          23289.84478149  .00001497  00000+0  48489-3 0  9991
2 89261  98.1628 309.0271 0013997  32.5563 327.6487 14.40300194420286
UNKNOWN                 
1 89281U          23289.46626061  .00035461  00000+0  65566-2 0  9991
2 89281  99.3343 114.0227 0013572 353.0934  37.3924 14.65198976520622
UNKNOWN                 
1 89314U          23290.78206985  .00004689  00000+0  90583-2 0  9999
2 89314  18.9033 166.9697 7069021 345.9513   1.9156  2.47507457 68861
UNKNOWN                 
1 89327U          23287.64239657  .00004803  00000+0  39746-2 0  9998
2 89327  82.5563 252.9901 0008376 165.1278 195.0133 13.88667473364910
UNKNOWN                 
1 89349U          23289.60530849  .00000407  00000+0  14072-2 0  9998
2 89349  90.2522 349.6243 0032716 172.0596 188.1048 12.95788655376669
